ATLAS CENTAUR R/B       
1 06155U 72065B   25357.20204438  .00001111  00000+0  15558-3 0  9992
2 06155  35.0025  33.9111 0033220  86.7972 273.6528 14.77435148829940
SL-8 R/B                
1 08459U 75112B   25357.75178223  .00000337  00000+0  11958-3 0  9998
2 08459  74.0591 158.6024 0016684 268.8017  91.1225 14.38152918620951
SL-3 R/B                
1 10114U 77057B   25357.71534244  .00012693  00000+0  28777-3 0  9999
2 10114  97.5690 161.4728 0007194 189.0775 171.0343 15.43201017656608
SEASAT 1                
1 10967U 78064A   25357.47384656  .00000311  00000+0  12553-3 0  9996
2 10967 108.0136 325.5547 0001362 254.5007 105.5988 14.46072187495497
SL-14 R/B               
1 11267U 79011B   25357.72139309  .00000614  00000+0  58300-4 0  9991
2 11267  82.5234 168.6287 0014985 315.3234  44.6777 14.91782355517451
SL-8 R/B                
1 11574U 79089B   25357.10192353  .00000252  00000+0  84154-4 0  9991
2 11574  74.0679 232.8011 0014653  62.8353 297.4295 14.42290129425065
SL-14 R/B               
1 11672U 80005B   25357.81882505  .00000529  00000+0  51030-4 0  9997
2 11672  82.5140  19.1911 0017149  59.7570 300.5344 14.90803861465189
SL-8 R/B                
1 12139U 81003B   25357.75861487  .00016984  00000+0  44921-3 0  9996
2 12139  82.9334   0.0630 0278044  82.4052 280.8662 15.07350921303227
SL-3 R/B                
1 12465U 81046B   25357.80728741  .00011187  00000+0  27964-3 0  9994
2 12465  81.2319  20.6952 0018178 283.9002  76.0217 15.39825299426746
SL-3 R/B                
1 12904U 81103B   25357.84896882  .00006157  00000+0  28126-3 0  9994
2 12904  81.1606 302.3420 0012635 173.8109 186.3280 15.20358647961702
SL-3 R/B                
1 13068U 82013B   25357.76040812  .00004224  00000+0  18693-3 0  9993
2 13068  81.1745 249.7100 0024096  75.5973 284.7931 15.21178326392808
SL-3 R/B                
1 13154U 82039B   25357.77520625  .00003030  00000+0  18537-3 0  9994
2 13154  81.1715 303.4007 0029403 214.7434 145.1872 15.09584853370184
