CCSDS_OMM_VERS = 2.0
CREATION_DATE  = 
ORIGINATOR     = 

OBJECT_NAME    = ATLAS CENTAUR R/B
OBJECT_ID      = 1972-065B
CENTER_NAME    = EARTH
REF_FRAME      = TEME
TIME_SYSTEM    = UTC
MEAN_ELEMENT_THEORY = SGP/SGP4

EPOCH          = 2025-12-23T04:50:56.634432
MEAN_MOTION    = 14.77435148
ECCENTRICITY   = .00332201
INCLINATION    = 35.0025
RA_OF_ASC_NODE = 33.9111
ARG_OF_PERICENTER = 86.7972
MEAN_ANOMALY   = 273.6528

EPHEMERIS_TYPE = 0
CLASSIFICATION_TYPE = U
NORAD_CAT_ID   = 6155
ELEMENT_SET_NO = 999
REV_AT_EPOCH   = 82994
BSTAR          = .15557661E-3
MEAN_MOTION_DOT = .1111E-4
MEAN_MOTION_DDOT = 0

CCSDS_OMM_VERS = 2.0
CREATION_DATE  = 
ORIGINATOR     = 

OBJECT_NAME    = SL-8 R/B
OBJECT_ID      = 1975-112B
CENTER_NAME    = EARTH
REF_FRAME      = TEME
TIME_SYSTEM    = UTC
MEAN_ELEMENT_THEORY = SGP/SGP4

EPOCH          = 2025-12-23T18:02:33.984672
MEAN_MOTION    = 14.38152918
ECCENTRICITY   = .0016684
INCLINATION    = 74.0591
RA_OF_ASC_NODE = 158.6024
ARG_OF_PERICENTER = 268.8017
MEAN_ANOMALY   = 91.1225

EPHEMERIS_TYPE = 0
CLASSIFICATION_TYPE = U
NORAD_CAT_ID   = 8459
ELEMENT_SET_NO = 999
REV_AT_EPOCH   = 62095
BSTAR          = .11958E-3
MEAN_MOTION_DOT = .337E-5
MEAN_MOTION_DDOT = 0

CCSDS_OMM_VERS = 2.0
CREATION_DATE  = 
ORIGINATOR     = 

OBJECT_NAME    = SL-3 R/B
OBJECT_ID      = 1977-057B
CENTER_NAME    = EARTH
REF_FRAME      = TEME
TIME_SYSTEM    = UTC
MEAN_ELEMENT_THEORY = SGP/SGP4

EPOCH          = 2025-12-23T17:10:05.586816
MEAN_MOTION    = 15.43201017
ECCENTRICITY   = .0007194
INCLINATION    = 97.5690
RA_OF_ASC_NODE = 161.4728
ARG_OF_PERICENTER = 189.0775
MEAN_ANOMALY   = 171.0343

EPHEMERIS_TYPE = 0
CLASSIFICATION_TYPE = U
NORAD_CAT_ID   = 10114
ELEMENT_SET_NO = 999
REV_AT_EPOCH   = 65660
BSTAR          = .28777E-3
MEAN_MOTION_DOT = .12693E-3
MEAN_MOTION_DDOT = 0

CCSDS_OMM_VERS = 2.0
CREATION_DATE  = 
ORIGINATOR     = 

OBJECT_NAME    = SEASAT 1
OBJECT_ID      = 1978-064A
CENTER_NAME    = EARTH
REF_FRAME      = TEME
TIME_SYSTEM    = UTC
MEAN_ELEMENT_THEORY = SGP/SGP4

EPOCH          = 2025-12-23T11:22:20.342784
MEAN_MOTION    = 14.46072187
ECCENTRICITY   = .0001362
INCLINATION    = 108.0136
RA_OF_ASC_NODE = 325.5547
ARG_OF_PERICENTER = 254.5007
MEAN_ANOMALY   = 105.5988

EPHEMERIS_TYPE = 0
CLASSIFICATION_TYPE = U
NORAD_CAT_ID   = 10967
ELEMENT_SET_NO = 999
REV_AT_EPOCH   = 49549
BSTAR          = .12553E-3
MEAN_MOTION_DOT = .311E-5
MEAN_MOTION_DDOT = 0

CCSDS_OMM_VERS = 2.0
CREATION_DATE  = 
ORIGINATOR     = 

OBJECT_NAME    = SL-14 R/B
OBJECT_ID      = 1979-011B
CENTER_NAME    = EARTH
REF_FRAME      = TEME
TIME_SYSTEM    = UTC
MEAN_ELEMENT_THEORY = SGP/SGP4

EPOCH          = 2025-12-23T17:18:48.362976
MEAN_MOTION    = 14.91782355
ECCENTRICITY   = .0014985
INCLINATION    = 82.5234
RA_OF_ASC_NODE = 168.6287
ARG_OF_PERICENTER = 315.3234
MEAN_ANOMALY   = 44.6777

EPHEMERIS_TYPE = 0
CLASSIFICATION_TYPE = U
NORAD_CAT_ID   = 11267
ELEMENT_SET_NO = 999
REV_AT_EPOCH   = 51745
BSTAR          = .583E-4
MEAN_MOTION_DOT = .614E-5
MEAN_MOTION_DDOT = 0

CCSDS_OMM_VERS = 2.0
CREATION_DATE  = 
ORIGINATOR     = 

OBJECT_NAME    = SL-8 R/B
OBJECT_ID      = 1979-089B
CENTER_NAME    = EARTH
REF_FRAME      = TEME
TIME_SYSTEM    = UTC
MEAN_ELEMENT_THEORY = SGP/SGP4

EPOCH          = 2025-12-23T02:26:46.192992
MEAN_MOTION    = 14.42290129
ECCENTRICITY   = .00146531
INCLINATION    = 74.0679
RA_OF_ASC_NODE = 232.8011
ARG_OF_PERICENTER = 62.8353
MEAN_ANOMALY   = 297.4295

EPHEMERIS_TYPE = 0
CLASSIFICATION_TYPE = U
NORAD_CAT_ID   = 11574
ELEMENT_SET_NO = 999
REV_AT_EPOCH   = 42506
BSTAR          = .84154388E-4
MEAN_MOTION_DOT = .252E-5
MEAN_MOTION_DDOT = 0

CCSDS_OMM_VERS = 2.0
CREATION_DATE  = 
ORIGINATOR     = 

OBJECT_NAME    = SL-14 R/B
OBJECT_ID      = 1980-005B
CENTER_NAME    = EARTH
REF_FRAME      = TEME
TIME_SYSTEM    = UTC
MEAN_ELEMENT_THEORY = SGP/SGP4

EPOCH          = 2025-12-23T19:39:06.484320
MEAN_MOTION    = 14.90803861
ECCENTRICITY   = .0017149
INCLINATION    = 82.5140
RA_OF_ASC_NODE = 19.1911
ARG_OF_PERICENTER = 59.7570
MEAN_ANOMALY   = 300.5344

EPHEMERIS_TYPE = 0
CLASSIFICATION_TYPE = U
NORAD_CAT_ID   = 11672
ELEMENT_SET_NO = 999
REV_AT_EPOCH   = 46518
BSTAR          = .5103E-4
MEAN_MOTION_DOT = .529E-5
MEAN_MOTION_DDOT = 0

CCSDS_OMM_VERS = 2.0
CREATION_DATE  = 
ORIGINATOR     = 

OBJECT_NAME    = SL-8 R/B
OBJECT_ID      = 1981-003B
CENTER_NAME    = EARTH
REF_FRAME      = TEME
TIME_SYSTEM    = UTC
MEAN_ELEMENT_THEORY = SGP/SGP4

EPOCH          = 2025-12-23T18:12:24.324768
MEAN_MOTION    = 15.07350921
ECCENTRICITY   = .0278044
INCLINATION    = 82.9334
RA_OF_ASC_NODE = 0.0630
ARG_OF_PERICENTER = 82.4052
MEAN_ANOMALY   = 280.8662

EPHEMERIS_TYPE = 0
CLASSIFICATION_TYPE = U
NORAD_CAT_ID   = 12139
ELEMENT_SET_NO = 999
REV_AT_EPOCH   = 30322
BSTAR          = .44921E-3
MEAN_MOTION_DOT = .16984E-3
MEAN_MOTION_DDOT = 0

CCSDS_OMM_VERS = 2.0
CREATION_DATE  = 
ORIGINATOR     = 

OBJECT_NAME    = SL-3 R/B
OBJECT_ID      = 1981-046B
CENTER_NAME    = EARTH
REF_FRAME      = TEME
TIME_SYSTEM    = UTC
MEAN_ELEMENT_THEORY = SGP/SGP4

EPOCH          = 2025-12-23T19:22:29.632224
MEAN_MOTION    = 15.39825299
ECCENTRICITY   = .0018178
INCLINATION    = 81.2319
RA_OF_ASC_NODE = 20.6952
ARG_OF_PERICENTER = 283.9002
MEAN_ANOMALY   = 76.0217

EPHEMERIS_TYPE = 0
CLASSIFICATION_TYPE = U
NORAD_CAT_ID   = 12465
ELEMENT_SET_NO = 999
REV_AT_EPOCH   = 42674
BSTAR          = .27964E-3
MEAN_MOTION_DOT = .11187E-3
MEAN_MOTION_DDOT = 0

CCSDS_OMM_VERS = 2.0
CREATION_DATE  = 
ORIGINATOR     = 

OBJECT_NAME    = SL-3 R/B
OBJECT_ID      = 1981-103B
CENTER_NAME    = EARTH
REF_FRAME      = TEME
TIME_SYSTEM    = UTC
MEAN_ELEMENT_THEORY = SGP/SGP4

EPOCH          = 2025-12-23T20:22:30.906048
MEAN_MOTION    = 15.20358647
ECCENTRICITY   = .0012635
INCLINATION    = 81.1606
RA_OF_ASC_NODE = 302.3420
ARG_OF_PERICENTER = 173.8109
MEAN_ANOMALY   = 186.3280

EPHEMERIS_TYPE = 0
CLASSIFICATION_TYPE = U
NORAD_CAT_ID   = 12904
ELEMENT_SET_NO = 999
REV_AT_EPOCH   = 96170
BSTAR          = .28126E-3
MEAN_MOTION_DOT = .6157E-4
MEAN_MOTION_DDOT = 0

CCSDS_OMM_VERS = 2.0
CREATION_DATE  = 
ORIGINATOR     = 

OBJECT_NAME    = SL-3 R/B
OBJECT_ID      = 1982-013B
CENTER_NAME    = EARTH
REF_FRAME      = TEME
TIME_SYSTEM    = UTC
MEAN_ELEMENT_THEORY = SGP/SGP4

EPOCH          = 2025-12-23T18:14:59.261568
MEAN_MOTION    = 15.21178326
ECCENTRICITY   = .0024096
INCLINATION    = 81.1745
RA_OF_ASC_NODE = 249.7100
ARG_OF_PERICENTER = 75.5973
MEAN_ANOMALY   = 284.7931

EPHEMERIS_TYPE = 0
CLASSIFICATION_TYPE = U
NORAD_CAT_ID   = 13068
ELEMENT_SET_NO = 999
REV_AT_EPOCH   = 39280
BSTAR          = .18693E-3
MEAN_MOTION_DOT = .4224E-4
MEAN_MOTION_DDOT = 0

CCSDS_OMM_VERS = 2.0
CREATION_DATE  = 
ORIGINATOR     = 

OBJECT_NAME    = SL-3 R/B
OBJECT_ID      = 1982-039B
CENTER_NAME    = EARTH
REF_FRAME      = TEME
TIME_SYSTEM    = UTC
MEAN_ELEMENT_THEORY = SGP/SGP4

EPOCH          = 2025-12-23T18:36:17.820000
MEAN_MOTION    = 15.09584853
ECCENTRICITY   = .0029403
INCLINATION    = 81.1715
RA_OF_ASC_NODE = 303.4007
ARG_OF_PERICENTER = 214.7434
MEAN_ANOMALY   = 145.1872

EPHEMERIS_TYPE = 0
CLASSIFICATION_TYPE = U
NORAD_CAT_ID   = 13154
ELEMENT_SET_NO = 999
REV_AT_EPOCH   = 37018
BSTAR          = .18537E-3
MEAN_MOTION_DOT = .303E-4
MEAN_MOTION_DDOT = 0

